[{"OBJECT_NAME":"STARLINK-4782","OBJECT_ID":"2022-119AZ","EPOCH":"2026-03-09T22:21:07.305984","MEAN_MOTION":15.08834656,"ECCENTRICITY":0.00013913,"INCLINATION":53.2173,"RA_OF_ASC_NODE":302.8926,"ARG_OF_PERICENTER":92.1273,"MEAN_ANOMALY":267.9878,"EPHEMERIS_TYPE":0,"CLASSIFICATION_TYPE":"U","NORAD_CAT_ID":53933,"ELEMENT_SET_NO":999,"REV_AT_EPOCH":19200,"BSTAR":0.00019607296,"MEAN_MOTION_DOT":2.834e-5,"MEAN_MOTION_DDOT":0},{"OBJECT_NAME":"CZ-6A DEB","OBJECT_ID":"2024-126C","EPOCH":"2026-03-09T22:45:09.534528","MEAN_MOTION":15.08339588,"ECCENTRICITY":0.00034995,"INCLINATION":97.8272,"RA_OF_ASC_NODE":88.0703,"ARG_OF_PERICENTER":249.9832,"MEAN_ANOMALY":110.1019,"EPHEMERIS_TYPE":0,"CLASSIFICATION_TYPE":"U","NORAD_CAT_ID":60213,"ELEMENT_SET_NO":999,"REV_AT_EPOCH":9177,"BSTAR":0.0010886629,"MEAN_MOTION_DOT":0.00016868,"MEAN_MOTION_DDOT":0}]
